{"fetched_at":"2026-03-30T13:17:50Z","count":15418,"tles":[{"name":"STARLINK-32721","line1":"1 62438U 24251G   26087.91459471  .00022030  00000+0  75336-3 0  9993","line2":"2 62438  53.1573 245.8745 0000872  80.2557 279.8542 15.30215756 70838","category":"Starlink"}]}