{
  "norad_id": 62438,
  "name": "STARLINK-32721",
  "history": [
    {
      "epoch": "2026-03-28T21:57:00.982944Z",
      "apogee_km": 475.76563344522947,
      "perigee_km": 474.57041704882613,
      "latitude_deg": -1.1921058267338238e-05,
      "longitude_deg": 90.29219390397554,
      "height_km": 475.96522510821137,
      "semi_major_axis_km": 6853.3050252470275,
      "eccentricity": 8.72e-05,
      "inclination_deg": 53.1573,
      "raan_deg": 245.8745,
      "arg_perigee_deg": 80.2557,
      "mean_anomaly_deg": 279.8542,
      "mean_motion_rev_day": 15.30215756
    }
  ]
}